OBJECT_NAME,OBJECT_ID,EPOCH,MEAN_MOTION,ECCENTRICITY,INCLINATION,RA_OF_ASC_NODE,ARG_OF_PERICENTER,MEAN_ANOMALY,EPHEMERIS_TYPE,CLASSIFICATION_TYPE,NORAD_CAT_ID,ELEMENT_SET_NO,REV_AT_EPOCH,BSTAR,MEAN_MOTION_DOT,MEAN_MOTION_DDOT
KUZGTU 1 (RS47S),2023-091AV,2026-07-02T06:32:19.594464,15.30211140,.00114182,97.5055,247.9084,50.4483,309.7764,0,U,57217,999,16668,.48305661E-3,.1408E-3,0
SONATE-2,2024-043Q,2026-07-02T03:43:43.367520,15.59874056,.00072229,97.5544,334.4822,147.3599,212.8105,0,U,59112,999,13022,.59821671E-3,.48237E-3,0
MESAT1,2024-125G,2026-07-02T03:24:21.843072,15.64918102,.00107609,97.2264,40.9812,153.2930,206.8887,0,U,60209,999,11190,.78828655E-3,.77728E-3,0
OOV-CUBE (TUBSAT-30),2024-128F,2026-07-02T07:01:24.756960,15.02829390,.00427261,61.9933,172.8979,137.0768,223.3671,0,U,60240,999,10838,.18700767E-3,.2351E-4,0
COLIBRI-S (RS67S),2024-199M,2026-07-02T06:03:37.389312,15.48354492,.00072679,97.2968,57.2483,209.7218,150.3621,0,U,61746,999,13974,.47242948E-3,.2497E-3,0
HORS 3 (RS81S),2024-199U,2026-07-02T06:31:21.988128,15.56040465,.00052835,97.2950,59.4222,199.5611,160.5442,0,U,61753,999,13990,.58030015E-3,.40479E-3,0
HORS 4 (RS82S),2024-199V,2026-07-02T05:58:56.870112,15.61152798,.00053098,97.2892,60.7014,187.6378,172.4800,0,U,61754,999,13999,.66551322E-3,.56387E-3,0
SIT-2086,2024-199AF,2026-07-02T06:26:27.524832,15.54145264,.00066121,97.2907,59.8430,185.1290,174.9898,0,U,61764,999,13677,.65580307E-3,.42719E-3,0
HYPERVIEW 1G (RS66S),2024-199AP,2026-07-02T05:15:38.557728,15.80443318,.00070576,97.2832,63.7438,174.6880,185.4464,0,U,61772,999,13704,.10161594E-2,.19584E-2,0
ALTAIR (RS65S),2024-199AW,2026-07-02T06:42:49.878144,15.37315782,.00109031,97.3006,52.5322,247.7493,112.2596,0,U,61779,999,13943,.29836146E-3,.10851E-3,0
ASRTU-1 (AO-123),2024-199AY,2026-07-02T06:44:53.640096,15.35890595,.0011969,97.2977,51.8163,251.7265,108.2677,0,U,61781,999,13624,.24848799E-3,.8619E-4,0
SAMSAT-IONOSPHERE (RS75S),2024-199BB,2026-07-02T06:41:26.462400,15.58988406,.00074804,97.2916,59.5332,206.0053,154.0829,0,U,61784,999,13991,.63055113E-3,.49186E-3,0
RTU MIREA 1 (RS51S),2024-199BC,2026-07-02T06:26:13.196256,15.62806885,.00075652,97.2904,60.4353,198.5705,161.5278,0,U,61785,999,13682,.7556265E-3,.68406E-3,0
TEVEL2-4,2025-052D,2026-07-02T05:48:43.691040,15.35148658,.00046113,97.3885,79.6623,75.7330,284.4425,0,U,63213,999,7242,.63389441E-3,.21586E-3,0
TEVEL2-5,2025-052E,2026-07-02T04:46:51.578976,15.34966749,.00045953,97.3883,79.5627,77.2045,282.9711,0,U,63214,999,7241,.64789713E-3,.21939E-3,0
TEVEL2-6,2025-052F,2026-07-02T05:05:06.475200,15.34930714,.0004421,97.3892,79.5600,78.1313,282.0426,0,U,63215,999,7241,.63290576E-3,.21402E-3,0
TEVEL2-1,2025-052H,2026-07-01T23:38:54.987360,15.34368746,.00049584,97.3861,78.9399,85.4902,274.6908,0,U,63217,999,7236,.68520505E-3,.22774E-3,0
TEVEL2-3,2025-052J,2026-07-02T05:46:01.708320,15.34438788,.00047481,97.3861,79.2186,86.3332,273.8453,0,U,63218,999,7240,.63306225E-3,.21076E-3,0
TEVEL2-2,2025-052K,2026-07-02T04:20:57.698304,15.34386769,.00049661,97.3860,79.1387,85.7515,274.4295,0,U,63219,999,7239,.6397061E-3,.21264E-3,0
OTP-2,2025-052AB,2026-07-02T06:17:36.440448,15.24191101,.00081643,97.3853,75.4676,105.5867,254.6273,0,U,63235,999,7216,.38884668E-3,.9413E-4,0
TEVEL2-9,2025-052AD,2026-07-02T05:50:38.309280,15.32368119,.00082607,97.3924,78.5433,91.0970,269.1218,0,U,63237,999,7233,.6221816E-3,.19414E-3,0
TEVEL2-7,2025-052AE,2026-07-02T05:19:44.231808,15.32058994,.00083937,97.3926,78.4311,91.6070,268.6133,0,U,63238,999,7232,.59672836E-3,.18436E-3,0
TEVEL2-8,2025-052AF,2026-07-02T03:57:46.663488,15.32042481,.00084209,97.3924,78.3507,92.2488,267.9718,0,U,63239,999,7231,.60417185E-3,.18658E-3,0
INNOSAT 16 (RS92S7),2025-155C,2026-07-02T06:50:44.644416,15.25618208,.00120867,97.4575,150.3667,126.9437,233.2910,0,U,64878,999,8297,.25718121E-3,.6477E-4,0
GEOSCAN 6 (RS92S6),2025-155D,2026-07-02T06:52:38.040960,15.30435813,.00097729,97.4565,151.8999,117.9103,242.3128,0,U,64879,999,8307,.38427476E-3,.11253E-3,0
GEOSCAN 1 (RS92S1),2025-155E,2026-07-02T06:47:29.935104,15.31064113,.00097404,97.4562,152.0576,118.0338,242.1889,0,U,64880,999,8308,.419422E-3,.12534E-3,0
239ALFEROV (RS61S),2025-155F,2026-07-02T05:32:06.239328,15.33351068,.00094092,97.4562,152.6180,116.9756,243.2448,0,U,64881,999,8311,.50596298E-3,.16265E-3,0
GEOSCAN 2 (RS92S2),2025-155Q,2026-07-02T06:34:36.859008,15.31322775,.00091927,97.4560,152.2071,107.5700,252.6546,0,U,64890,999,8309,.41341596E-3,.12451E-3,0
GEOSCAN 5 (RS92S5),2025-155R,2026-07-02T06:45:47.528640,15.33666167,.00083457,97.4554,152.8127,120.3719,239.8350,0,U,64891,999,8313,.50271812E-3,.16317E-3,0
GEOSCAN 4 (RS92S4),2025-155S,2026-07-02T06:20:48.124896,15.33827869,.00083512,97.4558,152.8479,120.2426,239.9644,0,U,64892,999,8313,.5272392E-3,.17207E-3,0
