KUZGTU 1 (RS47S)        
1 57217U 23091AV  26183.27244901  .00014080  00000+0  48306-3 0  9992
2 57217  97.5055 247.9084 0011418  50.4483 309.7764 15.30211140166689
SONATE-2                
1 59112U 24043Q   26183.15536305  .00048237  00000+0  59822-3 0  9991
2 59112  97.5544 334.4822 0007222 147.3599 212.8105 15.59874056130228
MESAT1                  
1 60209U 24125G   26183.14191948  .00077728  00000+0  78829-3 0  9995
2 60209  97.2264  40.9812 0010760 153.2930 206.8887 15.64918102111908
OOV-CUBE (TUBSAT-30)    
1 60240U 24128F   26183.29264765  .00002351  00000+0  18701-3 0  9990
2 60240  61.9933 172.8979 0042726 137.0768 223.3671 15.02829390108384
COLIBRI-S (RS67S)       
1 61746U 24199M   26183.25251608  .00024970  00000+0  47243-3 0  9992
2 61746  97.2968  57.2483 0007267 209.7218 150.3621 15.48354492139744
HORS 3 (RS81S)          
1 61753U 24199U   26183.27178227  .00040479  00000+0  58030-3 0  9995
2 61753  97.2950  59.4222 0005283 199.5611 160.5442 15.56040465139900
HORS 4 (RS82S)          
1 61754U 24199V   26183.24926933  .00056387  00000+0  66551-3 0  9990
2 61754  97.2892  60.7014 0005309 187.6378 172.4800 15.61152798139995
SIT-2086                
1 61764U 24199AF  26183.26837413  .00042719  00000+0  65580-3 0  9992
2 61764  97.2907  59.8430 0006612 185.1290 174.9898 15.54145264136777
HYPERVIEW 1G (RS66S)    
1 61772U 24199AP  26183.21919627  .00195840  00000+0  10162-2 0  9993
2 61772  97.2832  63.7438 0007057 174.6880 185.4464 15.80443318137044
ALTAIR (RS65S)          
1 61779U 24199AW  26183.27974396  .00010851  00000+0  29836-3 0  9997
2 61779  97.3006  52.5322 0010903 247.7493 112.2596 15.37315782139433
ASRTU-1 (AO-123)        
1 61781U 24199AY  26183.28117639  .00008619  00000+0  24849-3 0  9998
2 61781  97.2977  51.8163 0011969 251.7265 108.2677 15.35890595136241
SAMSAT-IONOSPHERE (RS7*)
1 61784U 24199BB  26183.27877850  .00049186  00000+0  63055-3 0  9994
2 61784  97.2916  59.5332 0007480 206.0053 154.0829 15.58988406139910
RTU MIREA 1 (RS51S)     
1 61785U 24199BC  26183.26820829  .00068406  00000+0  75563-3 0  9991
2 61785  97.2904  60.4353 0007565 198.5705 161.5278 15.62806885136828
TEVEL2-4                
1 63213U 25052D   26183.24217235  .00021586  00000+0  63389-3 0  9998
2 63213  97.3885  79.6623 0004611  75.7330 284.4425 15.35148658 72427
TEVEL2-5                
1 63214U 25052E   26183.19920809  .00021939  00000+0  64790-3 0  9990
2 63214  97.3883  79.5627 0004595  77.2045 282.9711 15.34966749 72418
TEVEL2-6                
1 63215U 25052F   26183.21188050  .00021402  00000+0  63291-3 0  9998
2 63215  97.3892  79.5600 0004421  78.1313 282.0426 15.34930714 72413
TEVEL2-1                
1 63217U 25052H   26182.98535865  .00022774  00000+0  68521-3 0  9997
2 63217  97.3861  78.9399 0004958  85.4902 274.6908 15.34368746 72365
TEVEL2-3                
1 63218U 25052J   26183.24029755  .00021076  00000+0  63306-3 0  9994
2 63218  97.3861  79.2186 0004748  86.3332 273.8453 15.34438788 72403
TEVEL2-2                
1 63219U 25052K   26183.18122336  .00021264  00000+0  63971-3 0  9994
2 63219  97.3860  79.1387 0004966  85.7515 274.4295 15.34386769 72393
OTP-2                   
1 63235U 25052AB  26183.26222732  .00009413  00000+0  38885-3 0  9990
2 63235  97.3853  75.4676 0008164 105.5867 254.6273 15.24191101 72162
TEVEL2-9                
1 63237U 25052AD  26183.24349895  .00019414  00000+0  62218-3 0  9999
2 63237  97.3924  78.5433 0008260  91.0970 269.1218 15.32368119 72332
TEVEL2-7                
1 63238U 25052AE  26183.22203972  .00018436  00000+0  59673-3 0  9997
2 63238  97.3926  78.4311 0008393  91.6070 268.6133 15.32058994 72329
TEVEL2-8                
1 63239U 25052AF  26183.16512342  .00018658  00000+0  60417-3 0  9999
2 63239  97.3924  78.3507 0008420  92.2488 267.9718 15.32042481 72319
INNOSAT 16 (RS92S7)     
1 64878U 25155C   26183.28523894  .00006477  00000+0  25718-3 0  9991
2 64878  97.4575 150.3667 0012086 126.9437 233.2910 15.25618208 82973
GEOSCAN 6 (RS92S6)      
1 64879U 25155D   26183.28655140  .00011253  00000+0  38427-3 0  9991
2 64879  97.4565 151.8999 0009772 117.9103 242.3128 15.30435813 83074
GEOSCAN 1 (RS92S1)      
1 64880U 25155E   26183.28298536  .00012534  00000+0  41942-3 0  9994
2 64880  97.4562 152.0576 0009740 118.0338 242.1889 15.31064113 83089
239ALFEROV (RS61S)      
1 64881U 25155F   26183.23062777  .00016265  00000+0  50596-3 0  9996
2 64881  97.4562 152.6180 0009409 116.9756 243.2448 15.33351068 83117
GEOSCAN 2 (RS92S2)      
1 64890U 25155Q   26183.27403772  .00012451  00000+0  41342-3 0  9996
2 64890  97.4560 152.2071 0009192 107.5700 252.6546 15.31322775 83095
GEOSCAN 5 (RS92S5)      
1 64891U 25155R   26183.28180010  .00016317  00000+0  50272-3 0  9992
2 64891  97.4554 152.8127 0008345 120.3719 239.8350 15.33666167 83132
GEOSCAN 4 (RS92S4)      
1 64892U 25155S   26183.26444589  .00017207  00000+0  52724-3 0  9998
2 64892  97.4558 152.8479 0008351 120.2426 239.9644 15.33827869 83133
